{
  "type": "FeatureCollection",
  "features": [
    {
      "type": "Feature",
      "properties": {
        "norad_id": 30350,
        "name": "FENGYUN 1C DEB",
        "group": "fengyun-1c-debris",
        "lat": 55.226714556285124,
        "lon": 155.91548793739108,
        "alt_km": 1015.8252376898445,
        "timestamp": "2025-12-15T19:00:45.632092+00:00",
        "meta_object_name": "FENGYUN 1C DEB",
        "meta_object_id": "1999-025ABM",
        "meta_epoch": "2025-12-14T22:42:52.435872",
        "meta_mean_motion": 13.82817436,
        "meta_eccentricity": 0.02193094,
        "meta_inclination": 98.0925,
        "meta_ra_of_asc_node": 167.0118,
        "meta_arg_of_pericenter": 302.6189,
        "meta_mean_anomaly": 223.2714,
        "meta_ephemeris_type": 0,
        "meta_classification_type": "U",
        "meta_norad_cat_id": 30350,
        "meta_element_set_no": 999,
        "meta_rev_at_epoch": 95012,
        "meta_bstar": 0.00078945824,
        "meta_mean_motion_dot": 9.97e-06,
        "meta_mean_motion_ddot": 0,
        "tle_line1": "1 30350U 99025ABM 25348.94644023  .00000997  00000+0  78946-3 0  9991",
        "tle_line2": "2 30350  98.0925 167.0118 0219309 302.6189 223.2714 13.82817436950124"
      },
      "geometry": {
        "type": "Point",
        "coordinates": [
          155.91548793739108,
          55.226714556285124
        ]
      }
    },
    {
      "type": "Feature",
      "properties": {
        "norad_id": 30352,
        "name": "FENGYUN 1C DEB",
        "group": "fengyun-1c-debris",
        "lat": -56.60339950484953,
        "lon": 177.24736482540322,
        "alt_km": 868.7242704097962,
        "timestamp": "2025-12-15T19:00:45.632104+00:00",
        "meta_object_name": "FENGYUN 1C DEB",
        "meta_object_id": "1999-025ABP",
        "meta_epoch": "2025-12-14T20:33:24.667200",
        "meta_mean_motion": 14.07586201,
        "meta_eccentricity": 0.00277465,
        "meta_inclination": 98.7643,
        "meta_ra_of_asc_node": 9.8717,
        "meta_arg_of_pericenter": 313.1627,
        "meta_mean_anomaly": 226.0783,
        "meta_ephemeris_type": 0,
        "meta_classification_type": "U",
        "meta_norad_cat_id": 30352,
        "meta_element_set_no": 999,
        "meta_rev_at_epoch": 96940,
        "meta_bstar": 0.0001568139,
        "meta_mean_motion_dot": 2.23e-06,
        "meta_mean_motion_ddot": 0,
        "tle_line1": "1 30352U 99025ABP 25348.85653550  .00000223  00000+0  15681-3 0  9997",
        "tle_line2": "2 30352  98.7643   9.8717 0027746 313.1627 226.0783 14.07586201969403"
      },
      "geometry": {
        "type": "Point",
        "coordinates": [
          177.24736482540322,
          -56.60339950484953
        ]
      }
    },
    {
      "type": "Feature",
      "properties": {
        "norad_id": 30355,
        "name": "FENGYUN 1C DEB",
        "group": "fengyun-1c-debris",
        "lat": -7.624451802892822,
        "lon": -4.793033569101048,
        "alt_km": 809.3593765650248,
        "timestamp": "2025-12-15T19:00:45.632115+00:00",
        "meta_object_name": "FENGYUN 1C DEB",
        "meta_object_id": "1999-025ABS",
        "meta_epoch": "2025-12-14T13:10:13.989792",
        "meta_mean_motion": 14.18826558,
        "meta_eccentricity": 0.00530899,
        "meta_inclination": 98.5891,
        "meta_ra_of_asc_node": 352.8432,
        "meta_arg_of_pericenter": 304.2225,
        "meta_mean_anomaly": 180.167,
        "meta_ephemeris_type": 0,
        "meta_classification_type": "U",
        "meta_norad_cat_id": 30355,
        "meta_element_set_no": 999,
        "meta_rev_at_epoch": 97376,
        "meta_bstar": 0.00073705246,
        "meta_mean_motion_dot": 1.512e-05,
        "meta_mean_motion_ddot": 0,
        "tle_line1": "1 30355U 99025ABS 25348.54877303  .00001512  00000+0  73705-3 0  9993",
        "tle_line2": "2 30355  98.5891 352.8432 0053089 304.2225 180.1670 14.18826558973761"
      },
      "geometry": {
        "type": "Point",
        "coordinates": [
          -4.793033569101048,
          -7.624451802892822
        ]
      }
    },
    {
      "type": "Feature",
      "properties": {
        "norad_id": 30356,
        "name": "FENGYUN 1C DEB",
        "group": "fengyun-1c-debris",
        "lat": 81.25739308578302,
        "lon": -98.51444624070115,
        "alt_km": 878.4014854475199,
        "timestamp": "2025-12-15T19:00:45.632126+00:00",
        "meta_object_name": "FENGYUN 1C DEB",
        "meta_object_id": "1999-025ABT",
        "meta_epoch": "2025-12-14T22:28:51.465792",
        "meta_mean_motion": 14.13042102,
        "meta_eccentricity": 0.00520421,
        "meta_inclination": 98.6811,
        "meta_ra_of_asc_node": 344.1116,
        "meta_arg_of_pericenter": 282.6784,
        "meta_mean_anomaly": 136.8226,
        "meta_ephemeris_type": 0,
        "meta_classification_type": "U",
        "meta_norad_cat_id": 30356,
        "meta_element_set_no": 999,
        "meta_rev_at_epoch": 97052,
        "meta_bstar": 0.00074278772,
        "meta_mean_motion_dot": 1.361e-05,
        "meta_mean_motion_ddot": 0,
        "tle_line1": "1 30356U 99025ABT 25348.93670678  .00001361  00000+0  74279-3 0  9992",
        "tle_line2": "2 30356  98.6811 344.1116 0052042 282.6784 136.8226 14.13042102970521"
      },
      "geometry": {
        "type": "Point",
        "coordinates": [
          -98.51444624070115,
          81.25739308578302
        ]
      }
    },
    {
      "type": "Feature",
      "properties": {
        "norad_id": 30357,
        "name": "FENGYUN 1C DEB",
        "group": "fengyun-1c-debris",
        "lat": -9.639553257717584,
        "lon": -164.55607857014957,
        "alt_km": 903.2460409201158,
        "timestamp": "2025-12-15T19:00:45.632136+00:00",
        "meta_object_name": "FENGYUN 1C DEB",
        "meta_object_id": "1999-025ABU",
        "meta_epoch": "2025-12-14T20:44:39.496992",
        "meta_mean_motion": 14.0526334,
        "meta_eccentricity": 0.00487711,
        "meta_inclination": 98.8061,
        "meta_ra_of_asc_node": 16.0517,
        "meta_arg_of_pericenter": 324.1961,
        "meta_mean_anomaly": 214.5215,
        "meta_ephemeris_type": 0,
        "meta_classification_type": "U",
        "meta_norad_cat_id": 30357,
        "meta_element_set_no": 999,
        "meta_rev_at_epoch": 96836,
        "meta_bstar": 4.3613114e-05,
        "meta_mean_motion_dot": 2.8e-07,
        "meta_mean_motion_ddot": 0,
        "tle_line1": "1 30357U 99025ABU 25348.86434603  .00000028  00000+0  43613-4 0  9999",
        "tle_line2": "2 30357  98.8061  16.0517 0048771 324.1961 214.5215 14.05263340968365"
      },
      "geometry": {
        "type": "Point",
        "coordinates": [
          -164.55607857014957,
          -9.639553257717584
        ]
      }
    },
    {
      "type": "Feature",
      "properties": {
        "norad_id": 30358,
        "name": "FENGYUN 1C DEB",
        "group": "fengyun-1c-debris",
        "lat": 29.77712944038638,
        "lon": 173.86879776997506,
        "alt_km": 877.4945818823289,
        "timestamp": "2025-12-15T19:00:45.632148+00:00",
        "meta_object_name": "FENGYUN 1C DEB",
        "meta_object_id": "1999-025ABV",
        "meta_epoch": "2025-12-14T19:16:50.406816",
        "meta_mean_motion": 14.20687593,
        "meta_eccentricity": 0.00826315,
        "meta_inclination": 98.5539,
        "meta_ra_of_asc_node": 177.8521,
        "meta_arg_of_pericenter": 193.5904,
        "meta_mean_anomaly": 182.4579,
        "meta_ephemeris_type": 0,
        "meta_classification_type": "U",
        "meta_norad_cat_id": 30358,
        "meta_element_set_no": 999,
        "meta_rev_at_epoch": 96947,
        "meta_bstar": 0.0016174891,
        "meta_mean_motion_dot": 3.566e-05,
        "meta_mean_motion_ddot": 0,
        "tle_line1": "1 30358U 99025ABV 25348.80336119  .00003566  00000+0  16175-2 0  9998",
        "tle_line2": "2 30358  98.5539 177.8521 0082631 193.5904 182.4579 14.20687593969478"
      },
      "geometry": {
        "type": "Point",
        "coordinates": [
          173.86879776997506,
          29.77712944038638
        ]
      }
    },
    {
      "type": "Feature",
      "properties": {
        "norad_id": 30359,
        "name": "FENGYUN 1C DEB",
        "group": "fengyun-1c-debris",
        "lat": 57.42689772618493,
        "lon": 15.074323267816624,
        "alt_km": 995.9084671704422,
        "timestamp": "2025-12-15T19:00:45.632158+00:00",
        "meta_object_name": "FENGYUN 1C DEB",
        "meta_object_id": "1999-025ABW",
        "meta_epoch": "2025-12-14T18:19:22.305504",
        "meta_mean_motion": 13.94015923,
        "meta_eccentricity": 0.01454146,
        "meta_inclination": 101.6268,
        "meta_ra_of_asc_node": 174.983,
        "meta_arg_of_pericenter": 337.5415,
        "meta_mean_anomaly": 21.9414,
        "meta_ephemeris_type": 0,
        "meta_classification_type": "U",
        "meta_norad_cat_id": 30359,
        "meta_element_set_no": 999,
        "meta_rev_at_epoch": 95097,
        "meta_bstar": 0.0022890124,
        "meta_mean_motion_dot": 3.242e-05,
        "meta_mean_motion_ddot": 0,
        "tle_line1": "1 30359U 99025ABW 25348.76345261  .00003242  00000+0  22890-2 0  9994",
        "tle_line2": "2 30359 101.6268 174.9830 0145414 337.5415  21.9414 13.94015923950973"
      },
      "geometry": {
        "type": "Point",
        "coordinates": [
          15.074323267816624,
          57.42689772618493
        ]
      }
    }
  ]
}